{
  "norad_id": 67804,
  "name": "STARLINK-36792",
  "history": [
    {
      "epoch": "2026-04-13T05:51:28.702944Z",
      "apogee_km": 345.5959563732131,
      "perigee_km": 342.29353205391635,
      "latitude_deg": 1.2369901292724779e-05,
      "longitude_deg": 2.1314552964919153,
      "height_km": 346.23687291512454,
      "semi_major_axis_km": 6722.081744213565,
      "eccentricity": 0.00024564,
      "inclination_deg": 97.2836,
      "raan_deg": 291.4387,
      "arg_perigee_deg": 58.0952,
      "mean_anomaly_deg": 302.0552,
      "mean_motion_rev_day": 15.75241257
    },
    {
      "epoch": "2026-04-14T18:26:59.231040Z",
      "apogee_km": 345.6283290226929,
      "perigee_km": 342.37481395409213,
      "latitude_deg": 9.282515471147849e-06,
      "longitude_deg": 173.35278451820818,
      "height_km": 347.7839566343692,
      "semi_major_axis_km": 6722.138571488392,
      "eccentricity": 0.000242,
      "inclination_deg": 97.2827,
      "raan_deg": 293.04,
      "arg_perigee_deg": 112.3084,
      "mean_anomaly_deg": 247.8438,
      "mean_motion_rev_day": 15.75221282
    },
    {
      "epoch": "2026-04-15T20:00:01.999008Z",
      "apogee_km": 358.0576002502503,
      "perigee_km": 355.72862683698713,
      "latitude_deg": -81.05729504194632,
      "longitude_deg": -83.71214098870529,
      "height_km": 386.27004571052504,
      "semi_major_axis_km": 6735.030113543618,
      "eccentricity": 0.0001729,
      "inclination_deg": 97.2833,
      "raan_deg": 294.1535,
      "arg_perigee_deg": 96.0346,
      "mean_anomaly_deg": 168.6568,
      "mean_motion_rev_day": 15.70700743
    },
    {
      "epoch": "2026-04-16T20:00:01.999008Z",
      "apogee_km": 370.2409858915262,
      "perigee_km": 367.7742298228932,
      "latitude_deg": 31.804562742889228,
      "longitude_deg": -25.267387097349786,
      "height_km": 372.92076454193796,
      "semi_major_axis_km": 6747.14460785721,
      "eccentricity": 0.0001828,
      "inclination_deg": 97.2842,
      "raan_deg": 295.1954,
      "arg_perigee_deg": 73.343,
      "mean_anomaly_deg": 74.6059,
      "mean_motion_rev_day": 15.66472354
    },
    {
      "epoch": "2026-04-17T22:00:01.999584Z",
      "apogee_km": 383.31515222719827,
      "perigee_km": 381.01245856686455,
      "latitude_deg": 55.03658575948503,
      "longitude_deg": -49.26403767930572,
      "height_km": 390.4864116203778,
      "semi_major_axis_km": 6760.300805397032,
      "eccentricity": 0.00017031,
      "inclination_deg": 97.2847,
      "raan_deg": 296.3135,
      "arg_perigee_deg": 82.5977,
      "mean_anomaly_deg": 41.7893,
      "mean_motion_rev_day": 15.6190182
    },
    {
      "epoch": "2026-04-18T20:00:01.000224Z",
      "apogee_km": 394.6843338649105,
      "perigee_km": 391.9270024104444,
      "latitude_deg": -48.73333834526188,
      "longitude_deg": -38.026721715838775,
      "height_km": 413.34065791710174,
      "semi_major_axis_km": 6771.442668137677,
      "eccentricity": 0.0002036,
      "inclination_deg": 97.2848,
      "raan_deg": 297.2538,
      "arg_perigee_deg": 88.5018,
      "mean_anomaly_deg": 140.48,
      "mean_motion_rev_day": 15.58048431
    },
    {
      "epoch": "2026-04-19T20:00:01.999008Z",
      "apogee_km": 406.4621469749691,
      "perigee_km": 404.50710722203985,
      "latitude_deg": 65.9073942365932,
      "longitude_deg": 133.8139469620229,
      "height_km": 415.9266154487769,
      "semi_major_axis_km": 6783.621627098504,
      "eccentricity": 0.0001441,
      "inclination_deg": 97.2854,
      "raan_deg": 298.2719,
      "arg_perigee_deg": 64.4341,
      "mean_anomaly_deg": 2.4417,
      "mean_motion_rev_day": 15.53854457
    },
    {
      "epoch": "2026-04-20T14:00:03.000384Z",
      "apogee_km": 415.53806349206843,
      "perigee_km": 413.154173616781,
      "latitude_deg": -63.883521002204375,
      "longitude_deg": -104.62268848094827,
      "height_km": 439.86372980354815,
      "semi_major_axis_km": 6792.483118554424,
      "eccentricity": 0.00017548,
      "inclination_deg": 97.2847,
      "raan_deg": 299.0329,
      "arg_perigee_deg": 87.9575,
      "mean_anomaly_deg": 207.4067,
      "mean_motion_rev_day": 15.50814705
    },
    {
      "epoch": "2026-04-21T20:00:01.999008Z",
      "apogee_km": 419.95084881112325,
      "perigee_km": 418.42281041422757,
      "latitude_deg": 62.298051896080395,
      "longitude_deg": 136.3680270712441,
      "height_km": 429.213693754079,
      "semi_major_axis_km": 6797.323829612676,
      "eccentricity": 0.0001124,
      "inclination_deg": 97.2859,
      "raan_deg": 300.2934,
      "arg_perigee_deg": 87.3017,
      "mean_anomaly_deg": 335.8015,
      "mean_motion_rev_day": 15.49158382
    },
    {
      "epoch": "2026-04-22T20:00:03.000384Z",
      "apogee_km": 426.4334404319934,
      "perigee_km": 423.96655043744886,
      "latitude_deg": -54.38991716760972,
      "longitude_deg": -39.82236268416135,
      "height_km": 447.3875650093769,
      "semi_major_axis_km": 6803.336995434721,
      "eccentricity": 0.0001813,
      "inclination_deg": 97.2856,
      "raan_deg": 301.3047,
      "arg_perigee_deg": 89.3952,
      "mean_anomaly_deg": 145.3874,
      "mean_motion_rev_day": 15.47104988
    },
    {
      "epoch": "2026-04-23T14:00:04.000032Z",
      "apogee_km": 435.3155181817674,
      "perigee_km": 433.36605953770777,
      "latitude_deg": 81.27172059050302,
      "longitude_deg": -175.4850482179459,
      "height_km": 446.86692668750277,
      "semi_major_axis_km": 6812.477788859737,
      "eccentricity": 0.00014308,
      "inclination_deg": 97.2853,
      "raan_deg": 302.0624,
      "arg_perigee_deg": 70.1627,
      "mean_anomaly_deg": 14.9324,
      "mean_motion_rev_day": 15.43992239
    },
    {
      "epoch": "2026-04-24T20:00:01.999008Z",
      "apogee_km": 451.1140504868781,
      "perigee_km": 447.9569347262968,
      "latitude_deg": 3.3800448703982653,
      "longitude_deg": -29.131660140587353,
      "height_km": 451.93958738247,
      "semi_major_axis_km": 6827.672492606587,
      "eccentricity": 0.0002312,
      "inclination_deg": 97.2855,
      "raan_deg": 303.307,
      "arg_perigee_deg": 98.8947,
      "mean_anomaly_deg": 77.5695,
      "mean_motion_rev_day": 15.38840971
    },
    {
      "epoch": "2026-04-25T20:00:01.000224Z",
      "apogee_km": 465.46434073778255,
      "perigee_km": 462.1897767392693,
      "latitude_deg": -54.78686909155737,
      "longitude_deg": 160.82278229421115,
      "height_km": 486.23183727502214,
      "semi_major_axis_km": 6841.964058738526,
      "eccentricity": 0.0002393,
      "inclination_deg": 97.2845,
      "raan_deg": 304.2964,
      "arg_perigee_deg": 76.4741,
      "mean_anomaly_deg": 228.3424,
      "mean_motion_rev_day": 15.34021969
    },
    {
      "epoch": "2026-04-26T22:00:00.999936Z",
      "apogee_km": 466.740157967658,
      "perigee_km": 464.6768754212835,
      "latitude_deg": 18.19681038093026,
      "longitude_deg": -57.16184799088421,
      "height_km": 468.1308727385909,
      "semi_major_axis_km": 6843.8455166944705,
      "eccentricity": 0.00015074,
      "inclination_deg": 97.2844,
      "raan_deg": 305.3614,
      "arg_perigee_deg": 78.7196,
      "mean_anomaly_deg": 82.9059,
      "mean_motion_rev_day": 15.3338943
    },
    {
      "epoch": "2026-04-27T20:00:03.000384Z",
      "apogee_km": 466.76336960654226,
      "perigee_km": 464.58703732584036,
      "latitude_deg": 1.0548867267664745,
      "longitude_deg": -29.430986153759065,
      "height_km": 468.87431347701107,
      "semi_major_axis_km": 6843.812203466191,
      "eccentricity": 0.000159,
      "inclination_deg": 97.285,
      "raan_deg": 306.2649,
      "arg_perigee_deg": 77.2594,
      "mean_anomaly_deg": 101.5419,
      "mean_motion_rev_day": 15.33400626
    },
    {
      "epoch": "2026-04-28T20:00:01.000224Z",
      "apogee_km": 466.79926965551385,
      "perigee_km": 464.547656013242,
      "latitude_deg": -63.78022832340431,
      "longitude_deg": 165.40046242065307,
      "height_km": 491.07289752277546,
      "semi_major_axis_km": 6843.810462834378,
      "eccentricity": 0.0001645,
      "inclination_deg": 97.284,
      "raan_deg": 307.2501,
      "arg_perigee_deg": 85.5703,
      "mean_anomaly_deg": 209.9011,
      "mean_motion_rev_day": 15.33401211
    },
    {
      "epoch": "2026-04-29T11:56:34.598688Z",
      "apogee_km": 466.7709220659308,
      "perigee_km": 464.3208835867199,
      "latitude_deg": 5.216507454168236e-05,
      "longitude_deg": -88.69763791267556,
      "height_km": 468.4734169986242,
      "semi_major_axis_km": 6843.6829028263255,
      "eccentricity": 0.000179,
      "inclination_deg": 97.2828,
      "raan_deg": 307.9044,
      "arg_perigee_deg": 81.4723,
      "mean_anomaly_deg": 278.6723,
      "mean_motion_rev_day": 15.33444083
    }
  ]
}